STARLINK-1996_new
1 17591C 21009AV  21326.13234404  .00009846  00000-0  65956-3 0  3268
2 17591  53.0527 223.1334 0001942  73.3402  79.5377 15.06394472    13
STARLINK-1996_old
1 27591C 21009AV  21325.13698722 -.00002027  00000-0 -13579-3 0  3253
2 27591  53.0542 227.6069 0001935  71.4649  80.5673 15.06403697    19
